{
  "type": "FeatureCollection",
  "features": [
    {
      "type": "Feature",
      "properties": {
        "norad_id": 35789,
        "name": "COSMOS 2251 DEB",
        "group": "cosmos-2251-debris",
        "lat": 37.76329524775583,
        "lon": 103.6598264627125,
        "alt_km": 775.9221402556223,
        "timestamp": "2025-12-06T03:35:02.282811+00:00",
        "meta_object_name": "COSMOS 2251 DEB",
        "meta_object_id": "1993-036ASK",
        "meta_epoch": "2025-12-04T04:07:13.820736",
        "meta_mean_motion": 14.3597471,
        "meta_eccentricity": 0.00471528,
        "meta_inclination": 74.0391,
        "meta_ra_of_asc_node": 300.0971,
        "meta_arg_of_pericenter": 41.8218,
        "meta_mean_anomaly": 318.6522,
        "meta_ephemeris_type": 0,
        "meta_classification_type": "U",
        "meta_norad_cat_id": 35789,
        "meta_element_set_no": 999,
        "meta_rev_at_epoch": 61104,
        "meta_bstar": 0.00025299607,
        "meta_mean_motion_dot": 7.18e-06,
        "meta_mean_motion_ddot": 0,
        "tle_line1": "1 35789U 93036ASK 25338.17168774  .00000718  00000+0  25300-3 0  9993",
        "tle_line2": "2 35789  74.0391 300.0971 0047152  41.8218 318.6522 14.35974710611041"
      },
      "geometry": {
        "type": "Point",
        "coordinates": [
          103.6598264627125,
          37.76329524775583
        ]
      }
    },
    {
      "type": "Feature",
      "properties": {
        "norad_id": 35793,
        "name": "COSMOS 2251 DEB",
        "group": "cosmos-2251-debris",
        "lat": -72.81141129000012,
        "lon": -39.18744683506978,
        "alt_km": 642.2630664717699,
        "timestamp": "2025-12-06T03:35:02.282821+00:00",
        "meta_object_name": "COSMOS 2251 DEB",
        "meta_object_id": "1993-036ASP",
        "meta_epoch": "2025-12-04T23:19:43.078368",
        "meta_mean_motion": 14.7836131,
        "meta_eccentricity": 0.0003165,
        "meta_inclination": 74.0414,
        "meta_ra_of_asc_node": 75.4446,
        "meta_arg_of_pericenter": 148.3826,
        "meta_mean_anomaly": 331.8589,
        "meta_ephemeris_type": 0,
        "meta_classification_type": "U",
        "meta_norad_cat_id": 35793,
        "meta_element_set_no": 999,
        "meta_rev_at_epoch": 65682,
        "meta_bstar": 0.0041014,
        "meta_mean_motion_dot": 0.00029956,
        "meta_mean_motion_ddot": 0,
        "tle_line1": "1 35793U 93036ASP 25338.97202637  .00029956  00000+0  41014-2 0  9997",
        "tle_line2": "2 35793  74.0414  75.4446 0003165 148.3826 331.8589 14.78361310656824"
      },
      "geometry": {
        "type": "Point",
        "coordinates": [
          -39.18744683506978,
          -72.81141129000012
        ]
      }
    },
    {
      "type": "Feature",
      "properties": {
        "norad_id": 35824,
        "name": "COSMOS 2251 DEB",
        "group": "cosmos-2251-debris",
        "lat": -72.38204878476802,
        "lon": -53.99985588840997,
        "alt_km": 1016.155753601659,
        "timestamp": "2025-12-06T03:35:02.282832+00:00",
        "meta_object_name": "COSMOS 2251 DEB",
        "meta_object_id": "1993-036ASW",
        "meta_epoch": "2025-12-03T12:05:08.597472",
        "meta_mean_motion": 13.88357909,
        "meta_eccentricity": 0.02501454,
        "meta_inclination": 73.8459,
        "meta_ra_of_asc_node": 64.6657,
        "meta_arg_of_pericenter": 152.4307,
        "meta_mean_anomaly": 209.0351,
        "meta_ephemeris_type": 0,
        "meta_classification_type": "U",
        "meta_norad_cat_id": 35824,
        "meta_element_set_no": 999,
        "meta_rev_at_epoch": 84099,
        "meta_bstar": 0.0020735278,
        "meta_mean_motion_dot": 3.165e-05,
        "meta_mean_motion_ddot": 0,
        "tle_line1": "1 35824U 93036ASW 25337.50357173  .00003165  00000+0  20735-2 0  9997",
        "tle_line2": "2 35824  73.8459  64.6657 0250145 152.4307 209.0351 13.88357909840996"
      },
      "geometry": {
        "type": "Point",
        "coordinates": [
          -53.99985588840997,
          -72.38204878476802
        ]
      }
    },
    {
      "type": "Feature",
      "properties": {
        "norad_id": 35825,
        "name": "COSMOS 2251 DEB",
        "group": "cosmos-2251-debris",
        "lat": -25.608854513291945,
        "lon": 145.6380198756029,
        "alt_km": 959.5390816791432,
        "timestamp": "2025-12-06T03:35:02.282842+00:00",
        "meta_object_name": "COSMOS 2251 DEB",
        "meta_object_id": "1993-036ASX",
        "meta_epoch": "2025-11-18T20:38:01.180896",
        "meta_mean_motion": 13.70825357,
        "meta_eccentricity": 0.03535711,
        "meta_inclination": 74.1138,
        "meta_ra_of_asc_node": 181.8907,
        "meta_arg_of_pericenter": 283.1782,
        "meta_mean_anomaly": 73.0118,
        "meta_ephemeris_type": 0,
        "meta_classification_type": "U",
        "meta_norad_cat_id": 35825,
        "meta_element_set_no": 999,
        "meta_rev_at_epoch": 82181,
        "meta_bstar": 0.0013809564,
        "meta_mean_motion_dot": 1.891e-05,
        "meta_mean_motion_ddot": 0,
        "tle_line1": "1 35825U 93036ASX 25322.85973589  .00001891  00000+0  13810-2 0  9995",
        "tle_line2": "2 35825  74.1138 181.8907 0353571 283.1782  73.0118 13.70825357821819"
      },
      "geometry": {
        "type": "Point",
        "coordinates": [
          145.6380198756029,
          -25.608854513291945
        ]
      }
    },
    {
      "type": "Feature",
      "properties": {
        "norad_id": 35829,
        "name": "COSMOS 2251 DEB",
        "group": "cosmos-2251-debris",
        "lat": -55.57916691068337,
        "lon": -43.56675924325591,
        "alt_km": 646.8012303951064,
        "timestamp": "2025-12-06T03:35:02.282853+00:00",
        "meta_object_name": "COSMOS 2251 DEB",
        "meta_object_id": "1993-036ATB",
        "meta_epoch": "2025-12-04T01:42:07.569216",
        "meta_mean_motion": 14.75878061,
        "meta_eccentricity": 0.00074898,
        "meta_inclination": 74.0233,
        "meta_ra_of_asc_node": 115.7881,
        "meta_arg_of_pericenter": 173.9555,
        "meta_mean_anomaly": 186.1711,
        "meta_ephemeris_type": 0,
        "meta_classification_type": "U",
        "meta_norad_cat_id": 35829,
        "meta_element_set_no": 999,
        "meta_rev_at_epoch": 87647,
        "meta_bstar": 0.0046734359,
        "meta_mean_motion_dot": 0.00032229,
        "meta_mean_motion_ddot": 0,
        "tle_line1": "1 35829U 93036ATB 25338.07092094  .00032229  00000+0  46734-2 0  9993",
        "tle_line2": "2 35829  74.0233 115.7881 0007489 173.9555 186.1711 14.75878061876476"
      },
      "geometry": {
        "type": "Point",
        "coordinates": [
          -43.56675924325591,
          -55.57916691068337
        ]
      }
    },
    {
      "type": "Feature",
      "properties": {
        "norad_id": 35830,
        "name": "COSMOS 2251 DEB",
        "group": "cosmos-2251-debris",
        "lat": -19.54130067971127,
        "lon": -87.46663653258237,
        "alt_km": 818.5375846041115,
        "timestamp": "2025-12-06T03:35:02.282864+00:00",
        "meta_object_name": "COSMOS 2251 DEB",
        "meta_object_id": "1993-036ATC",
        "meta_epoch": "2025-12-04T04:28:02.478720",
        "meta_mean_motion": 14.23905065,
        "meta_eccentricity": 0.0123073,
        "meta_inclination": 73.8631,
        "meta_ra_of_asc_node": 282.002,
        "meta_arg_of_pericenter": 251.8911,
        "meta_mean_anomaly": 106.8798,
        "meta_ephemeris_type": 0,
        "meta_classification_type": "U",
        "meta_norad_cat_id": 35830,
        "meta_element_set_no": 999,
        "meta_rev_at_epoch": 61142,
        "meta_bstar": 0.0019117,
        "meta_mean_motion_dot": 4.714e-05,
        "meta_mean_motion_ddot": 0,
        "tle_line1": "1 35830U 93036ATC 25338.18613980  .00004714  00000+0  19117-2 0  9993",
        "tle_line2": "2 35830  73.8631 282.0020 0123073 251.8911 106.8798 14.23905065611424"
      },
      "geometry": {
        "type": "Point",
        "coordinates": [
          -87.46663653258237,
          -19.54130067971127
        ]
      }
    },
    {
      "type": "Feature",
      "properties": {
        "norad_id": 35834,
        "name": "COSMOS 2251 DEB",
        "group": "cosmos-2251-debris",
        "lat": 69.0176794797196,
        "lon": 4.998408632088784,
        "alt_km": 782.9030572152615,
        "timestamp": "2025-12-06T03:35:02.282874+00:00",
        "meta_object_name": "COSMOS 2251 DEB",
        "meta_object_id": "1993-036ATG",
        "meta_epoch": "2025-12-04T05:26:40.982208",
        "meta_mean_motion": 14.12967901,
        "meta_eccentricity": 0.0109106,
        "meta_inclination": 73.9304,
        "meta_ra_of_asc_node": 319.69,
        "meta_arg_of_pericenter": 121.8785,
        "meta_mean_anomaly": 260.1307,
        "meta_ephemeris_type": 0,
        "meta_classification_type": "U",
        "meta_norad_cat_id": 35834,
        "meta_element_set_no": 999,
        "meta_rev_at_epoch": 66143,
        "meta_bstar": 0.00027149,
        "meta_mean_motion_dot": 5.11e-06,
        "meta_mean_motion_ddot": 0,
        "tle_line1": "1 35834U 93036ATG 25338.22686322  .00000511  00000+0  27149-3 0  9998",
        "tle_line2": "2 35834  73.9304 319.6900 0109106 121.8785 260.1307 14.12967901661437"
      },
      "geometry": {
        "type": "Point",
        "coordinates": [
          4.998408632088784,
          69.0176794797196
        ]
      }
    }
  ]
}